
# Worst residual: 36.91 km
# MJD 57273.000000 (2015 Sep  8  0:00)
2013-070B = NORAD 39459 = UX29E26 = Chang'e 3 booster
1 39459U 13070B   15251.49921083  .00000000  00000-0  00000-0 0    04
2 39459 021.0205 128.9622 7733123 053.8229 225.2811 00.05371038    05

# Worst residual: 59.91 km
# MJD 57274.000000 (2015 Sep  9  0:00)
2013-070B = NORAD 39459 = UX29E26 = Chang'e 3 booster
1 39459U 13070B   15252.49921083  .00000000  00000-0  00000-0 0    05
2 39459 021.0091 128.8854 7714442 053.4997 246.1012 00.05321801    03

# Worst residual: 89.62 km
# MJD 57275.000000 (2015 Sep 10  0:00)
2013-070B = NORAD 39459 = UX29E26 = Chang'e 3 booster
1 39459U 13070B   15253.49921083  .00000000  00000-0  00000-0 0    06
2 39459 020.9765 128.9574 7696186 052.7202 267.6957 00.05221606    02

# Worst residual: 134.89 km
# MJD 57276.000000 (2015 Sep 11  0:00)
2013-070B = NORAD 39459 = UX29E26 = Chang'e 3 booster
1 39459U 13070B   15254.49921083  .00000000  00000-0  00000-0 0    07
2 39459 020.8763 129.1928 7689508 051.3099 290.2226 00.05019307    08

# Worst residual: 247.57 km
# MJD 57277.000000 (2015 Sep 12  0:00)
2013-070B = NORAD 39459 = UX29E26 = Chang'e 3 booster
1 39459U 13070B   15255.49921083  .00000000  00000-0  00000-0 0    08
2 39459 020.4776 129.2206 7704755 048.6584 315.2001 00.04486648    02

# Worst residual: 1905.53 km
# MJD 57278.000000 (2015 Sep 13  0:00)
2013-070B = NORAD 39459 = UX29E26 = Chang'e 3 booster
1 39459U 13070B   15256.49921083  .00000000  00000-0  00000-0 0    09
2 39459 025.4752 133.8854 7989880 068.9730 287.5888 00.16279766    01

# Worst residual: 3856.32 km
# MJD 57279.000000 (2015 Sep 14  0:00)
2013-070B = NORAD 39459 = UX29E26 = Chang'e 3 booster
1 39459U 13070B   15257.49921083  .00000000  00000-0  00000-0 0    00
2 39459 021.1847 128.3804 7889879 055.3299 344.4775 00.05368125    04

# Worst residual: 3109.28 km
# MJD 57280.000000 (2015 Sep 15  0:00)
2013-070B = NORAD 39459 = UX29E26 = Chang'e 3 booster
1 39459U 13070B   15258.49921083  .00000000  00000-0  00000-0 0    01
2 39459 021.9660 130.7480 7713698 052.1189 005.4899 00.06717724    05

# Worst residual: 2286.70 km
# MJD 57281.000000 (2015 Sep 16  0:00)
2013-070B = NORAD 39459 = UX29E26 = Chang'e 3 booster
1 39459U 13070B   15259.49921083  .00000000  00000-0  00000-0 0    02
2 39459 020.7496 126.9413 7943667 060.5501 019.0328 00.04471587    04

# Worst residual: 242.75 km
# MJD 57282.000000 (2015 Sep 17  0:00)
2013-070B = NORAD 39459 = UX29E26 = Chang'e 3 booster
1 39459U 13070B   15260.49921083  .00000000  00000-0  00000-0 0    04
2 39459 020.0993 127.2990 7843077 060.0091 038.7883 00.04883682    03

# Worst residual: 104.15 km
# MJD 57283.000000 (2015 Sep 18  0:00)
2013-070B = NORAD 39459 = UX29E26 = Chang'e 3 booster
1 39459U 13070B   15261.49921083  .00000000  00000-0  00000-0 0    05
2 39459 020.1163 127.7920 7815905 057.8133 062.1146 00.05308079    07

# Worst residual: 53.56 km
# MJD 57284.000000 (2015 Sep 19  0:00)
2013-070B = NORAD 39459 = UX29E26 = Chang'e 3 booster
1 39459U 13070B   15262.49921083  .00000000  00000-0  00000-0 0    06
2 39459 020.1906 127.8044 7823984 057.0878 083.7631 00.05448307    01

# Worst residual: 27.11 km
# MJD 57285.000000 (2015 Sep 20  0:00)
2013-070B = NORAD 39459 = UX29E26 = Chang'e 3 booster
1 39459U 13070B   15263.49921083  .00000000  00000-0  00000-0 0    07
2 39459 020.2876 127.7683 7841978 056.7905 104.5610 00.05503475    03

# Worst residual: 12.16 km
# MJD 57286.000000 (2015 Sep 21  0:00)
2013-070B = NORAD 39459 = UX29E26 = Chang'e 3 booster
1 39459U 13070B   15264.49921083  .00000000  00000-0  00000-0 0    08
2 39459 020.3349 127.5940 7857837 056.8440 124.7966 00.05523850    06

# Worst residual: 11.01 km
# MJD 57287.000000 (2015 Sep 22  0:00)
2013-070B = NORAD 39459 = UX29E26 = Chang'e 3 booster
1 39459U 13070B   15265.49921083  .00000000  00000-0  00000-0 0    09
2 39459 020.2995 127.1651 7862622 057.2508 144.7910 00.05528816    03

# Worst residual: 21.47 km
# MJD 57288.000000 (2015 Sep 23  0:00)
2013-070B = NORAD 39459 = UX29E26 = Chang'e 3 booster
1 39459U 13070B   15266.49921083  .00000000  00000-0  00000-0 0    00
2 39459 020.2038 126.4988 7852736 057.8832 164.9165 00.05525929    05

# Worst residual: 34.05 km
# MJD 57289.000000 (2015 Sep 24  0:00)
2013-070B = NORAD 39459 = UX29E26 = Chang'e 3 booster
1 39459U 13070B   15267.49921083  .00000000  00000-0  00000-0 0    01
2 39459 020.1056 125.7901 7833541 058.4543 185.4980 00.05516892    02

# Worst residual: 47.44 km
# MJD 57290.000000 (2015 Sep 25  0:00)
2013-070B = NORAD 39459 = UX29E26 = Chang'e 3 booster
1 39459U 13070B   15268.49921083  .00000000  00000-0  00000-0 0    02
2 39459 020.0593 125.3413 7819912 058.6344 206.6831 00.05500989    09

# Worst residual: 61.25 km
# MJD 57291.000000 (2015 Sep 26  0:00)
2013-070B = NORAD 39459 = UX29E26 = Chang'e 3 booster
1 39459U 13070B   15269.49921083  .00000000  00000-0  00000-0 0    03
2 39459 020.0775 125.3493 7830396 058.2971 228.3630 00.05477472    08

# Worst residual: 71.51 km
# MJD 57292.000000 (2015 Sep 27  0:00)
2013-070B = NORAD 39459 = UX29E26 = Chang'e 3 booster
1 39459U 13070B   15270.49921083  .00000000  00000-0  00000-0 0    05
2 39459 020.1068 125.5660 7875960 057.8301 250.1940 00.05446712    00

# Worst residual: 68.00 km
# MJD 57293.000000 (2015 Sep 28  0:00)
2013-070B = NORAD 39459 = UX29E26 = Chang'e 3 booster
1 39459U 13070B   15271.49921083  .00000000  00000-0  00000-0 0    06
2 39459 020.0621 125.1659 7946865 058.1624 271.6361 00.05411854    07

# Worst residual: 44.46 km
# MJD 57294.000000 (2015 Sep 29  0:00)
2013-070B = NORAD 39459 = UX29E26 = Chang'e 3 booster
1 39459U 13070B   15272.49921083  .00000000  00000-0  00000-0 0    07
2 39459 019.9597 123.5692 8009912 059.8512 292.0219 00.05387547    03

# Worst residual: 40.72 km
# MJD 57295.000000 (2015 Sep 30  0:00)
2013-070B = NORAD 39459 = UX29E26 = Chang'e 3 booster
1 39459U 13070B   15273.49921083  .00000000  00000-0  00000-0 0    08
2 39459 019.9247 121.2819 8035456 062.2721 311.0993 00.05403868    09

# Worst residual: 79.95 km
# MJD 57296.000000 (2015 Oct  1  0:00)
2013-070B = NORAD 39459 = UX29E26 = Chang'e 3 booster
1 39459U 13070B   15274.49921083  .00000000  00000-0  00000-0 0    09
2 39459 020.0316 119.0175 8018473 064.5718 329.4441 00.05489465    08

# Worst residual: 154.76 km
# MJD 57297.000000 (2015 Oct  2  0:00)
2013-070B = NORAD 39459 = UX29E26 = Chang'e 3 booster
1 39459U 13070B   15275.49921083  .00000000  00000-0  00000-0 0    00
2 39459 020.2898 117.3732 7963264 066.0652 347.9672 00.05695318    02
